STARLINK-36276          
1 67852U 26034C   26059.50001156 -.01534759  00000+0 -77166-2 0  9997
2 67852  53.1514 257.4042 0000484 105.0438 250.2621 15.83751619  2387
STARLINK-36785          
1 67853U 26034D   26059.50001156 -.01530345  00000+0 -76020-2 0  9993
2 67853  53.1511 257.3968 0000753  86.1741 272.6185 15.83991510  2385
STARLINK-36608          
1 67854U 26034E   26059.50001156 -.01517874  00000+0 -74603-2 0  9991
2 67854  53.1509 257.3897 0000614  96.3883 265.9575 15.84190491  2388
STARLINK-36838          
1 67855U 26034F   26059.50001156 -.01513761  00000+0 -73603-2 0  9992
2 67855  53.1510 257.3824 0000623  84.4167 281.3893 15.84405646  2380
STARLINK-36843          
1 67856U 26034G   26059.50001156 -.01496875  00000+0 -71354-2 0  9990
2 67856  53.1507 257.3681 0000518  78.2937 294.4754 15.84784640  2382
STARLINK-36828          
1 67857U 26034H   26059.50001156 -.01511773  00000+0 -72808-2 0  9991
2 67857  53.1509 257.3756 0000749  86.5319 282.7862 15.84597883  2381
STARLINK-36837          
1 67858U 26034J   26059.50001156 -.01490801  00000+0 -70316-2 0  9992
2 67858  53.1505 257.3610 0000666  93.1758 282.9316 15.84989790  2384
STARLINK-36393          
1 67859U 26034K   26059.50001156 -.01489290  00000+0 -69600-2 0  9997
2 67859  53.1504 257.3538 0000877  75.3487 304.1693 15.85173996  2387
STARLINK-35873          
1 67860U 26034L   26059.50001156 -.01480726  00000+0 -68454-2 0  9990
2 67860  53.1502 257.3474 0000574  97.8015 284.9163 15.85383565  2524
STARLINK-36325          
1 67861U 26034M   26059.50001156 -.01478937  00000+0 -67740-2 0  9999
2 67861  53.1499 257.3403 0000662  92.2250 293.8059 15.85569135  2386
STARLINK-36332          
1 67862U 26034N   26059.50001156 -.01470180  00000+0 -66678-2 0  9991
2 67862  53.1502 257.3337 0000680  85.7327 303.5269 15.85754507  2381
STARLINK-36835          
1 67863U 26034P   26059.50001156 -.01431710  00000+0 -65614-2 0  9997
2 67863  53.1498 257.3264 0000648 102.7699 289.7175 15.85934100  2381
