CCSDS_OMM_VERS = 2.0
CREATION_DATE  = 
ORIGINATOR     = 

OBJECT_NAME    = STARLINK-36276
OBJECT_ID      = 2026-034C
CENTER_NAME    = EARTH
REF_FRAME      = TEME
TIME_SYSTEM    = UTC
MEAN_ELEMENT_THEORY = SGP/SGP4

EPOCH          = 2026-02-28T12:00:00.998784
MEAN_MOTION    = 15.83751619
ECCENTRICITY   = .0000484
INCLINATION    = 53.1514
RA_OF_ASC_NODE = 257.4042
ARG_OF_PERICENTER = 105.0438
MEAN_ANOMALY   = 250.2621

EPHEMERIS_TYPE = 0
CLASSIFICATION_TYPE = U
NORAD_CAT_ID   = 67852
ELEMENT_SET_NO = 999
REV_AT_EPOCH   = 238
BSTAR          = -.77166E-2
MEAN_MOTION_DOT = -.1534759E-1
MEAN_MOTION_DDOT = 0

CCSDS_OMM_VERS = 2.0
CREATION_DATE  = 
ORIGINATOR     = 

OBJECT_NAME    = STARLINK-36785
OBJECT_ID      = 2026-034D
CENTER_NAME    = EARTH
REF_FRAME      = TEME
TIME_SYSTEM    = UTC
MEAN_ELEMENT_THEORY = SGP/SGP4

EPOCH          = 2026-02-28T12:00:00.998784
MEAN_MOTION    = 15.83991510
ECCENTRICITY   = .0000753
INCLINATION    = 53.1511
RA_OF_ASC_NODE = 257.3968
ARG_OF_PERICENTER = 86.1741
MEAN_ANOMALY   = 272.6185

EPHEMERIS_TYPE = 0
CLASSIFICATION_TYPE = U
NORAD_CAT_ID   = 67853
ELEMENT_SET_NO = 999
REV_AT_EPOCH   = 238
BSTAR          = -.7602E-2
MEAN_MOTION_DOT = -.1530345E-1
MEAN_MOTION_DDOT = 0

CCSDS_OMM_VERS = 2.0
CREATION_DATE  = 
ORIGINATOR     = 

OBJECT_NAME    = STARLINK-36608
OBJECT_ID      = 2026-034E
CENTER_NAME    = EARTH
REF_FRAME      = TEME
TIME_SYSTEM    = UTC
MEAN_ELEMENT_THEORY = SGP/SGP4

EPOCH          = 2026-02-28T12:00:00.998784
MEAN_MOTION    = 15.84190491
ECCENTRICITY   = .0000614
INCLINATION    = 53.1509
RA_OF_ASC_NODE = 257.3897
ARG_OF_PERICENTER = 96.3883
MEAN_ANOMALY   = 265.9575

EPHEMERIS_TYPE = 0
CLASSIFICATION_TYPE = U
NORAD_CAT_ID   = 67854
ELEMENT_SET_NO = 999
REV_AT_EPOCH   = 238
BSTAR          = -.74603E-2
MEAN_MOTION_DOT = -.1517874E-1
MEAN_MOTION_DDOT = 0

CCSDS_OMM_VERS = 2.0
CREATION_DATE  = 
ORIGINATOR     = 

OBJECT_NAME    = STARLINK-36838
OBJECT_ID      = 2026-034F
CENTER_NAME    = EARTH
REF_FRAME      = TEME
TIME_SYSTEM    = UTC
MEAN_ELEMENT_THEORY = SGP/SGP4

EPOCH          = 2026-02-28T12:00:00.998784
MEAN_MOTION    = 15.84405646
ECCENTRICITY   = .0000623
INCLINATION    = 53.1510
RA_OF_ASC_NODE = 257.3824
ARG_OF_PERICENTER = 84.4167
MEAN_ANOMALY   = 281.3893

EPHEMERIS_TYPE = 0
CLASSIFICATION_TYPE = U
NORAD_CAT_ID   = 67855
ELEMENT_SET_NO = 999
REV_AT_EPOCH   = 238
BSTAR          = -.73603E-2
MEAN_MOTION_DOT = -.1513761E-1
MEAN_MOTION_DDOT = 0

CCSDS_OMM_VERS = 2.0
CREATION_DATE  = 
ORIGINATOR     = 

OBJECT_NAME    = STARLINK-36843
OBJECT_ID      = 2026-034G
CENTER_NAME    = EARTH
REF_FRAME      = TEME
TIME_SYSTEM    = UTC
MEAN_ELEMENT_THEORY = SGP/SGP4

EPOCH          = 2026-02-28T12:00:00.998784
MEAN_MOTION    = 15.84784640
ECCENTRICITY   = .0000518
INCLINATION    = 53.1507
RA_OF_ASC_NODE = 257.3681
ARG_OF_PERICENTER = 78.2937
MEAN_ANOMALY   = 294.4754

EPHEMERIS_TYPE = 0
CLASSIFICATION_TYPE = U
NORAD_CAT_ID   = 67856
ELEMENT_SET_NO = 999
REV_AT_EPOCH   = 238
BSTAR          = -.71354E-2
MEAN_MOTION_DOT = -.1496875E-1
MEAN_MOTION_DDOT = 0

CCSDS_OMM_VERS = 2.0
CREATION_DATE  = 
ORIGINATOR     = 

OBJECT_NAME    = STARLINK-36828
OBJECT_ID      = 2026-034H
CENTER_NAME    = EARTH
REF_FRAME      = TEME
TIME_SYSTEM    = UTC
MEAN_ELEMENT_THEORY = SGP/SGP4

EPOCH          = 2026-02-28T12:00:00.998784
MEAN_MOTION    = 15.84597883
ECCENTRICITY   = .0000749
INCLINATION    = 53.1509
RA_OF_ASC_NODE = 257.3756
ARG_OF_PERICENTER = 86.5319
MEAN_ANOMALY   = 282.7862

EPHEMERIS_TYPE = 0
CLASSIFICATION_TYPE = U
NORAD_CAT_ID   = 67857
ELEMENT_SET_NO = 999
REV_AT_EPOCH   = 238
BSTAR          = -.72808E-2
MEAN_MOTION_DOT = -.1511773E-1
MEAN_MOTION_DDOT = 0

CCSDS_OMM_VERS = 2.0
CREATION_DATE  = 
ORIGINATOR     = 

OBJECT_NAME    = STARLINK-36837
OBJECT_ID      = 2026-034J
CENTER_NAME    = EARTH
REF_FRAME      = TEME
TIME_SYSTEM    = UTC
MEAN_ELEMENT_THEORY = SGP/SGP4

EPOCH          = 2026-02-28T12:00:00.998784
MEAN_MOTION    = 15.84989790
ECCENTRICITY   = .0000666
INCLINATION    = 53.1505
RA_OF_ASC_NODE = 257.3610
ARG_OF_PERICENTER = 93.1758
MEAN_ANOMALY   = 282.9316

EPHEMERIS_TYPE = 0
CLASSIFICATION_TYPE = U
NORAD_CAT_ID   = 67858
ELEMENT_SET_NO = 999
REV_AT_EPOCH   = 238
BSTAR          = -.70316E-2
MEAN_MOTION_DOT = -.1490801E-1
MEAN_MOTION_DDOT = 0

CCSDS_OMM_VERS = 2.0
CREATION_DATE  = 
ORIGINATOR     = 

OBJECT_NAME    = STARLINK-36393
OBJECT_ID      = 2026-034K
CENTER_NAME    = EARTH
REF_FRAME      = TEME
TIME_SYSTEM    = UTC
MEAN_ELEMENT_THEORY = SGP/SGP4

EPOCH          = 2026-02-28T12:00:00.998784
MEAN_MOTION    = 15.85173996
ECCENTRICITY   = .0000877
INCLINATION    = 53.1504
RA_OF_ASC_NODE = 257.3538
ARG_OF_PERICENTER = 75.3487
MEAN_ANOMALY   = 304.1693

EPHEMERIS_TYPE = 0
CLASSIFICATION_TYPE = U
NORAD_CAT_ID   = 67859
ELEMENT_SET_NO = 999
REV_AT_EPOCH   = 238
BSTAR          = -.696E-2
MEAN_MOTION_DOT = -.148929E-1
MEAN_MOTION_DDOT = 0

CCSDS_OMM_VERS = 2.0
CREATION_DATE  = 
ORIGINATOR     = 

OBJECT_NAME    = STARLINK-35873
OBJECT_ID      = 2026-034L
CENTER_NAME    = EARTH
REF_FRAME      = TEME
TIME_SYSTEM    = UTC
MEAN_ELEMENT_THEORY = SGP/SGP4

EPOCH          = 2026-02-28T12:00:00.998784
MEAN_MOTION    = 15.85383565
ECCENTRICITY   = .0000574
INCLINATION    = 53.1502
RA_OF_ASC_NODE = 257.3474
ARG_OF_PERICENTER = 97.8015
MEAN_ANOMALY   = 284.9163

EPHEMERIS_TYPE = 0
CLASSIFICATION_TYPE = U
NORAD_CAT_ID   = 67860
ELEMENT_SET_NO = 999
REV_AT_EPOCH   = 252
BSTAR          = -.68454E-2
MEAN_MOTION_DOT = -.1480726E-1
MEAN_MOTION_DDOT = 0

CCSDS_OMM_VERS = 2.0
CREATION_DATE  = 
ORIGINATOR     = 

OBJECT_NAME    = STARLINK-36325
OBJECT_ID      = 2026-034M
CENTER_NAME    = EARTH
REF_FRAME      = TEME
TIME_SYSTEM    = UTC
MEAN_ELEMENT_THEORY = SGP/SGP4

EPOCH          = 2026-02-28T12:00:00.998784
MEAN_MOTION    = 15.85569135
ECCENTRICITY   = .0000662
INCLINATION    = 53.1499
RA_OF_ASC_NODE = 257.3403
ARG_OF_PERICENTER = 92.2250
MEAN_ANOMALY   = 293.8059

EPHEMERIS_TYPE = 0
CLASSIFICATION_TYPE = U
NORAD_CAT_ID   = 67861
ELEMENT_SET_NO = 999
REV_AT_EPOCH   = 238
BSTAR          = -.6774E-2
MEAN_MOTION_DOT = -.1478937E-1
MEAN_MOTION_DDOT = 0

CCSDS_OMM_VERS = 2.0
CREATION_DATE  = 
ORIGINATOR     = 

OBJECT_NAME    = STARLINK-36332
OBJECT_ID      = 2026-034N
CENTER_NAME    = EARTH
REF_FRAME      = TEME
TIME_SYSTEM    = UTC
MEAN_ELEMENT_THEORY = SGP/SGP4

EPOCH          = 2026-02-28T12:00:00.998784
MEAN_MOTION    = 15.85754507
ECCENTRICITY   = .000068
INCLINATION    = 53.1502
RA_OF_ASC_NODE = 257.3337
ARG_OF_PERICENTER = 85.7327
MEAN_ANOMALY   = 303.5269

EPHEMERIS_TYPE = 0
CLASSIFICATION_TYPE = U
NORAD_CAT_ID   = 67862
ELEMENT_SET_NO = 999
REV_AT_EPOCH   = 238
BSTAR          = -.66678E-2
MEAN_MOTION_DOT = -.147018E-1
MEAN_MOTION_DDOT = 0

CCSDS_OMM_VERS = 2.0
CREATION_DATE  = 
ORIGINATOR     = 

OBJECT_NAME    = STARLINK-36835
OBJECT_ID      = 2026-034P
CENTER_NAME    = EARTH
REF_FRAME      = TEME
TIME_SYSTEM    = UTC
MEAN_ELEMENT_THEORY = SGP/SGP4

EPOCH          = 2026-02-28T12:00:00.998784
MEAN_MOTION    = 15.85934100
ECCENTRICITY   = .0000648
INCLINATION    = 53.1498
RA_OF_ASC_NODE = 257.3264
ARG_OF_PERICENTER = 102.7699
MEAN_ANOMALY   = 289.7175

EPHEMERIS_TYPE = 0
CLASSIFICATION_TYPE = U
NORAD_CAT_ID   = 67863
ELEMENT_SET_NO = 999
REV_AT_EPOCH   = 238
BSTAR          = -.65614E-2
MEAN_MOTION_DOT = -.143171E-1
MEAN_MOTION_DDOT = 0

